SAUDISAT 5A             
1 43831U 18102A   26195.20777001  .00003312  00000+0  12259-3 0  9998
2 43831  97.3055 256.2701 0010509  46.8775 313.3342 15.28315231419807
SAUDISAT 5B             
1 43833U 18102C   26195.22219708  .00003241  00000+0  11914-3 0  9995
2 43833  97.3164 259.4030 0011288  48.2925 311.9279 15.28558908419924
GAOFEN-10R              
1 44622U 19066A   26195.20928100  .00000543  00000+0  73510-4 0  9996
2 44622  98.0514 148.9869 0006916  55.6765 304.5102 14.83055977366388
CARTOSAT-3              
1 44804U 19081A   26194.76601593  .00002780  00000+0  13459-3 0  9999
2 44804  97.4302 256.2032 0013222  65.4929 294.7683 15.19319394367507
GAOFEN-12 01            
1 44819U 19082A   26195.18227069  .00000176  00000+0  29653-4 0  9996
2 44819  97.8108 200.8501 0001018  53.9447 306.1860 14.80479145358080
CSG-1                   
1 44873U 19092A   26195.19060403  .00000169  00000+0  27744-4 0  9996
2 44873  97.8894  18.4029 0001498  90.1267 270.0118 14.82156305355472
NEMO-HD                 
1 46277U 20061F   26195.20489627  .00006903  00000+0  14766-3 0  9990
2 46277  97.1909 256.8921 0000981  93.5868 266.5494 15.45125922326152
SENTINEL-6A             
1 46984U 20086A   26195.02168084 -.00000045  00000+0  68355-4 0  9999
2 46984  66.0413  79.3181 0007800 269.9179  90.0943 12.80930118263762
CAS500-1                
1 47932U 21022A   26195.18275109  .00003991  00000+0  18743-3 0  9995
2 47932  97.3871  89.8856 0005130 171.6544 188.4778 15.20176809294864
GAOFEN-12 02            
1 48079U 21026A   26195.19623694  .00000158  00000+0  27720-4 0  9997
2 48079  97.9933 193.2680 0005770 134.8288 225.3394 14.80315579285750
PLEIADES NEO 3          
1 48268U 21034A   26195.19859461 -.00000414  00000+0 -46054-4 0  9997
2 48268  97.8945 269.5765 0001380  91.4673 268.6698 14.81666986281656
PLEIADES NEO 4          
1 49070U 21073E   26195.16482720  .00000844  00000+0  11389-3 0  9996
2 49070  97.8944 269.5390 0001304  94.9909 265.1452 14.81671582265365
LANDSAT 9               
1 49260U 21088A   26195.18379984  .00000138  00000+0  40643-4 0  9994
2 49260  98.2271 265.0328 0001138  89.3134 270.8195 14.57095009254934
CSG-2                   
1 51444U 22008A   26195.15681584  .00000286  00000+0  42479-4 0  9996
2 51444  97.8886  18.3641 0001566  84.3051 275.8341 14.82150634240581
GAOFEN-12 03            
1 52912U 22069A   26195.16317780  .00000279  00000+0  43494-4 0  9999
2 52912  97.8252  82.3500 0002458  73.4483 286.6999 14.80073938218609
SWOT                    
1 54754U 22173A   26195.14085594  .00000056  00000+0  40025-4 0  9994
2 54754  77.6109 358.9213 0000274  78.8836 281.2346 14.00172334182924
GAOFEN-12 04            
1 57654U 23123A   26195.18266957  .00000486  00000+0  71415-4 0  9994
2 57654  97.9102 112.7974 0003566  52.7127 307.4409 14.79774308156629
PARS 1                  
1 59065U 24039Q   26195.24007157  .00007464  00000+0  15323-3 0  9999
2 59065  97.4834 177.0252 0009881  30.0463 330.1351 15.46277705132824
RESURS-P 4              
1 59371U 24061A   26195.16991817  .00001741  00000+0  58297-4 0  9990
2 59371  97.2758 142.6027 0003230  91.1465 269.0147 15.32276553127896
LEGION 1                
1 59625U 24081A   26195.14359102  .00001998  00000+0  10498-3 0  9991
2 59625  97.5014 272.7145 0007699 273.8429  86.1923 15.16840253121625
LEGION 2                
1 59626U 24081B   26195.17396230  .00002041  00000+0  10719-3 0  9994
2 59626  97.5015 272.8415 0010140 237.2830 122.7426 15.16818708121639
ALOS-4 (DAICHI-4)       
1 60182U 24123A   26195.21166752  .00000334  00000+0  51578-4 0  9991
2 60182  97.9221 291.9996 0001569  98.6143 261.5246 14.79468240109872
LEGION 3                
1 60452U 24146A   26195.21608352  .00001745  00000+0  10384-3 0  9999
2 60452  45.0020 245.6367 0008291 328.7619  31.2766 15.15652443106120
LEGION 4                
1 60453U 24146B   26194.88630610  .00002266  00000+0  13065-3 0  9992
2 60453  45.0030 339.2713 0008928 105.5212 254.6653 15.15675992104920
SENTINEL-2C             
1 60989U 24157A   26195.16556389  .00000043  00000+0  33236-4 0  9994
2 60989  98.5685 269.5647 0000956 102.6163 257.5127 14.30815481 96844
IONOSFERA-M 1           
1 61735U 24199A   26195.19890226  .00000032  00000+0  33763-4 0  9997
2 61735  98.7136  68.0815 0002177  74.2009 285.9409 14.22759025131543
IONOSFERA-M 2           
1 61736U 24199B   26195.16280762  .00000033  00000+0  34283-4 0  9992
2 61736  98.7135  67.9562 0000464 121.3494 238.7729 14.22762390134665
PRSC-EO1                
1 62725U 25012A   26195.22399120  .00003883  00000+0  19634-3 0  9990
2 62725  97.4220 267.1538 0006686 149.2156 210.9472 15.17613178 82290
BIOMASS                 
1 63772U 25090A   26195.10456736  .00000378  00000+0  75161-4 0  9997
2 63772  98.0751  22.0260 0001418  95.6566 264.4800 14.67537152 64634
GOSAT-GW (IBUKI GW)     
1 64694U 25141A   26195.19000650  .00000171  00000+0  38649-4 0  9998
2 64694  98.0563 132.0690 0001368  92.9221 267.2140 14.67554022 55802
IONOSFERA-M 3           
1 64876U 25155A   26195.20466691  .00000006  00000+0  22568-4 0  9998
2 64876  98.6039 156.4318 0002261 113.9258 246.2157 14.21490729 50243
