OBJECT_NAME,OBJECT_ID,EPOCH,MEAN_MOTION,ECCENTRICITY,INCLINATION,RA_OF_ASC_NODE,ARG_OF_PERICENTER,MEAN_ANOMALY,EPHEMERIS_TYPE,CLASSIFICATION_TYPE,NORAD_CAT_ID,ELEMENT_SET_NO,REV_AT_EPOCH,BSTAR,MEAN_MOTION_DOT,MEAN_MOTION_DDOT
SAUDISAT 5A,2018-102A,2026-07-14T04:59:11.328864,15.28315231,.0010509,97.3055,256.2701,46.8775,313.3342,0,U,43831,999,41980,.12259E-3,.3312E-4,0
SAUDISAT 5B,2018-102C,2026-07-14T05:19:57.827712,15.28558908,.0011288,97.3164,259.4030,48.2925,311.9279,0,U,43833,999,41992,.11914E-3,.3241E-4,0
GAOFEN-10R,2019-066A,2026-07-14T05:01:21.878400,14.83055977,.0006916,98.0514,148.9869,55.6765,304.5102,0,U,44622,999,36638,.7351E-4,.543E-5,0
CARTOSAT-3,2019-081A,2026-07-13T18:23:03.776352,15.19319394,.0013222,97.4302,256.2032,65.4929,294.7683,0,U,44804,999,36750,.13459E-3,.278E-4,0
GAOFEN-12 01,2019-082A,2026-07-14T04:22:28.187616,14.80479145,.0001018,97.8108,200.8501,53.9447,306.1860,0,U,44819,999,35808,.29653E-4,.176E-5,0
CSG-1,2019-092A,2026-07-14T04:34:28.188192,14.82156305,.0001498,97.8894,18.4029,90.1267,270.0118,0,U,44873,999,35547,.27744E-4,.169E-5,0
NEMO-HD,2020-061F,2026-07-14T04:55:03.037728,15.45125922,.0000981,97.1909,256.8921,93.5868,266.5494,0,U,46277,999,32615,.14766E-3,.6903E-4,0
SENTINEL-6A,2020-086A,2026-07-14T00:31:13.224576,12.80930118,.00078,66.0413,79.3181,269.9179,90.0943,0,U,46984,999,26376,.68355E-4,-.45E-6,0
CAS500-1,2021-022A,2026-07-14T04:23:09.694176,15.20176809,.000513,97.3871,89.8856,171.6544,188.4778,0,U,47932,999,29486,.18743E-3,.3991E-4,0
GAOFEN-12 02,2021-026A,2026-07-14T04:42:34.871616,14.80315579,.000577,97.9933,193.2680,134.8288,225.3394,0,U,48079,999,28575,.2772E-4,.158E-5,0
PLEIADES NEO 3,2021-034A,2026-07-14T04:45:58.574304,14.81666986,.000138,97.8945,269.5765,91.4673,268.6698,0,U,48268,999,28165,-.46054E-4,-.414E-5,0
PLEIADES NEO 4,2021-073E,2026-07-14T03:57:21.070080,14.81671582,.0001304,97.8944,269.5390,94.9909,265.1452,0,U,49070,999,26536,.11389E-3,.844E-5,0
LANDSAT 9,2021-088A,2026-07-14T04:24:40.306176,14.57095009,.0001138,98.2271,265.0328,89.3134,270.8195,0,U,49260,999,25493,.40643E-4,.138E-5,0
CSG-2,2022-008A,2026-07-14T03:45:48.888576,14.82150634,.0001566,97.8886,18.3641,84.3051,275.8341,0,U,51444,999,24058,.42479E-4,.286E-5,0
GAOFEN-12 03,2022-069A,2026-07-14T03:54:58.561920,14.80073938,.0002458,97.8252,82.3500,73.4483,286.6999,0,U,52912,999,21860,.43494E-4,.279E-5,0
SWOT,2022-173A,2026-07-14T03:22:49.953216,14.00172334,.0000274,77.6109,358.9213,78.8836,281.2346,0,U,54754,999,18292,.40025E-4,.56E-6,0
GAOFEN-12 04,2023-123A,2026-07-14T04:23:02.650848,14.79774308,.0003566,97.9102,112.7974,52.7127,307.4409,0,U,57654,999,15662,.71415E-4,.486E-5,0
PARS 1,2024-039Q,2026-07-14T05:45:42.183648,15.46277705,.0009881,97.4834,177.0252,30.0463,330.1351,0,U,59065,999,13282,.15323E-3,.7464E-4,0
RESURS-P 4,2024-061A,2026-07-14T04:04:40.929888,15.32276553,.000323,97.2758,142.6027,91.1465,269.0147,0,U,59371,999,12789,.58297E-4,.1741E-4,0
LEGION 1,2024-081A,2026-07-14T03:26:46.264128,15.16840253,.0007699,97.5014,272.7145,273.8429,86.1923,0,U,59625,999,12162,.10498E-3,.1998E-4,0
LEGION 2,2024-081B,2026-07-14T04:10:30.342720,15.16818708,.001014,97.5015,272.8415,237.2830,122.7426,0,U,59626,999,12163,.10719E-3,.2041E-4,0
ALOS-4 (DAICHI-4),2024-123A,2026-07-14T05:04:48.073728,14.79468240,.0001569,97.9221,291.9996,98.6143,261.5246,0,U,60182,999,10987,.51578E-4,.334E-5,0
LEGION 3,2024-146A,2026-07-14T05:11:09.616128,15.15652443,.0008291,45.0020,245.6367,328.7619,31.2766,0,U,60452,999,10612,.10384E-3,.1745E-4,0
LEGION 4,2024-146B,2026-07-13T21:16:16.847040,15.15675992,.0008928,45.0030,339.2713,105.5212,254.6653,0,U,60453,999,10492,.13065E-3,.2266E-4,0
SENTINEL-2C,2024-157A,2026-07-14T03:58:24.720096,14.30815481,.0000956,98.5685,269.5647,102.6163,257.5127,0,U,60989,999,9684,.33236E-4,.43E-6,0
IONOSFERA-M 1,2024-199A,2026-07-14T04:46:25.155264,14.22759025,.0002177,98.7136,68.0815,74.2009,285.9409,0,U,61735,999,13154,.33763E-4,.32E-6,0
IONOSFERA-M 2,2024-199B,2026-07-14T03:54:26.578368,14.22762390,.0000464,98.7135,67.9562,121.3494,238.7729,0,U,61736,999,13466,.34283E-4,.33E-6,0
PRSC-EO1,2025-012A,2026-07-14T05:22:32.839680,15.17613178,.0006686,97.4220,267.1538,149.2156,210.9472,0,U,62725,999,8229,.19634E-3,.3883E-4,0
BIOMASS,2025-090A,2026-07-14T02:30:34.619904,14.67537152,.0001418,98.0751,22.0260,95.6566,264.4800,0,U,63772,999,6463,.75161E-4,.378E-5,0
GOSAT-GW (IBUKI GW),2025-141A,2026-07-14T04:33:36.561600,14.67554022,.0001368,98.0563,132.0690,92.9221,267.2140,0,U,64694,999,5580,.38649E-4,.171E-5,0
IONOSFERA-M 3,2025-155A,2026-07-14T04:54:43.221024,14.21490729,.0002261,98.6039,156.4318,113.9258,246.2157,0,U,64876,999,5024,.22568E-4,.6E-7,0
